{
  "type": "FeatureCollection",
  "features": [
    {
      "type": "Feature",
      "properties": {
        "norad_id": 35824,
        "name": "COSMOS 2251 DEB",
        "group": "cosmos-2251-debris",
        "lat": 37.09612566307258,
        "lon": -153.55437278298345,
        "alt_km": 756.9147726996007,
        "timestamp": "2025-12-18T08:58:43.811454+00:00",
        "meta_object_name": "COSMOS 2251 DEB",
        "meta_object_id": "1993-036ASW",
        "meta_epoch": "2025-12-17T20:12:45.612576",
        "meta_mean_motion": 13.88437103,
        "meta_eccentricity": 0.02481819,
        "meta_inclination": 73.8461,
        "meta_ra_of_asc_node": 40.0198,
        "meta_arg_of_pericenter": 125.2294,
        "meta_mean_anomaly": 237.234,
        "meta_ephemeris_type": 0,
        "meta_classification_type": "U",
        "meta_norad_cat_id": 35824,
        "meta_element_set_no": 999,
        "meta_rev_at_epoch": 84298,
        "meta_bstar": 0.00079958432,
        "meta_mean_motion_dot": 1.204e-05,
        "meta_mean_motion_ddot": 0,
        "tle_line1": "1 35824U 93036ASW 25351.84219459  .00001204  00000+0  79958-3 0  9998",
        "tle_line2": "2 35824  73.8461  40.0198 0248181 125.2294 237.2340 13.88437103842984"
      },
      "geometry": {
        "type": "Point",
        "coordinates": [
          -153.55437278298345,
          37.09612566307258
        ]
      }
    },
    {
      "type": "Feature",
      "properties": {
        "norad_id": 35825,
        "name": "COSMOS 2251 DEB",
        "group": "cosmos-2251-debris",
        "lat": 21.887505624845595,
        "lon": -53.18946216761939,
        "alt_km": 901.7453326539016,
        "timestamp": "2025-12-18T08:58:43.811464+00:00",
        "meta_object_name": "COSMOS 2251 DEB",
        "meta_object_id": "1993-036ASX",
        "meta_epoch": "2025-12-14T02:36:29.406816",
        "meta_mean_motion": 13.70963524,
        "meta_eccentricity": 0.03526119,
        "meta_inclination": 74.113,
        "meta_ra_of_asc_node": 140.3902,
        "meta_arg_of_pericenter": 235.9093,
        "meta_mean_anomaly": 120.8102,
        "meta_ephemeris_type": 0,
        "meta_classification_type": "U",
        "meta_norad_cat_id": 35825,
        "meta_element_set_no": 999,
        "meta_rev_at_epoch": 82527,
        "meta_bstar": 0.0023333684,
        "meta_mean_motion_dot": 3.214e-05,
        "meta_mean_motion_ddot": 0,
        "tle_line1": "1 35825U 93036ASX 25348.10867369  .00003214  00000+0  23334-2 0  9992",
        "tle_line2": "2 35825  74.1130 140.3902 0352611 235.9093 120.8102 13.70963524825277"
      },
      "geometry": {
        "type": "Point",
        "coordinates": [
          -53.18946216761939,
          21.887505624845595
        ]
      }
    },
    {
      "type": "Feature",
      "properties": {
        "norad_id": 35829,
        "name": "COSMOS 2251 DEB",
        "group": "cosmos-2251-debris",
        "lat": 19.358297186969068,
        "lon": 93.54217391937613,
        "alt_km": 642.5730182985726,
        "timestamp": "2025-12-18T08:58:43.811474+00:00",
        "meta_object_name": "COSMOS 2251 DEB",
        "meta_object_id": "1993-036ATB",
        "meta_epoch": "2025-12-17T00:21:46.598688",
        "meta_mean_motion": 14.76400839,
        "meta_eccentricity": 0.0005573,
        "meta_inclination": 74.0249,
        "meta_ra_of_asc_node": 90.4281,
        "meta_arg_of_pericenter": 146.0686,
        "meta_mean_anomaly": 214.0846,
        "meta_ephemeris_type": 0,
        "meta_classification_type": "U",
        "meta_norad_cat_id": 35829,
        "meta_element_set_no": 999,
        "meta_rev_at_epoch": 87838,
        "meta_bstar": 0.001494418,
        "meta_mean_motion_dot": 0.00010373,
        "meta_mean_motion_ddot": 0,
        "tle_line1": "1 35829U 93036ATB 25351.01512267  .00010373  00000+0  14944-2 0  9995",
        "tle_line2": "2 35829  74.0249  90.4281 0005573 146.0686 214.0846 14.76400839878381"
      },
      "geometry": {
        "type": "Point",
        "coordinates": [
          93.54217391937613,
          19.358297186969068
        ]
      }
    },
    {
      "type": "Feature",
      "properties": {
        "norad_id": 35830,
        "name": "COSMOS 2251 DEB",
        "group": "cosmos-2251-debris",
        "lat": -16.189085600542107,
        "lon": -108.64023607145373,
        "alt_km": 859.0426815004894,
        "timestamp": "2025-12-18T08:58:43.811484+00:00",
        "meta_object_name": "COSMOS 2251 DEB",
        "meta_object_id": "1993-036ATC",
        "meta_epoch": "2025-12-17T01:01:27.071616",
        "meta_mean_motion": 14.24015017,
        "meta_eccentricity": 0.01218819,
        "meta_inclination": 73.8614,
        "meta_ra_of_asc_node": 258.6041,
        "meta_arg_of_pericenter": 226.0627,
        "meta_mean_anomaly": 133.0413,
        "meta_ephemeris_type": 0,
        "meta_classification_type": "U",
        "meta_norad_cat_id": 35830,
        "meta_element_set_no": 999,
        "meta_rev_at_epoch": 61325,
        "meta_bstar": 0.00082142349,
        "meta_mean_motion_dot": 2.01e-05,
        "meta_mean_motion_ddot": 0,
        "tle_line1": "1 35830U 93036ATC 25351.04267444  .00002010  00000+0  82142-3 0  9999",
        "tle_line2": "2 35830  73.8614 258.6041 0121881 226.0627 133.0413 14.24015017613259"
      },
      "geometry": {
        "type": "Point",
        "coordinates": [
          -108.64023607145373,
          -16.189085600542107
        ]
      }
    },
    {
      "type": "Feature",
      "properties": {
        "norad_id": 35834,
        "name": "COSMOS 2251 DEB",
        "group": "cosmos-2251-debris",
        "lat": -41.81229151017173,
        "lon": -80.42469411335838,
        "alt_km": 913.0299564461156,
        "timestamp": "2025-12-18T08:58:43.811504+00:00",
        "meta_object_name": "COSMOS 2251 DEB",
        "meta_object_id": "1993-036ATG",
        "meta_epoch": "2025-12-17T02:40:38.175744",
        "meta_mean_motion": 14.12986684,
        "meta_eccentricity": 0.01092954,
        "meta_inclination": 73.9324,
        "meta_ra_of_asc_node": 296.7605,
        "meta_arg_of_pericenter": 95.953,
        "meta_mean_anomaly": 281.2032,
        "meta_ephemeris_type": 0,
        "meta_classification_type": "U",
        "meta_norad_cat_id": 35834,
        "meta_element_set_no": 999,
        "meta_rev_at_epoch": 66325,
        "meta_bstar": 0.00039176741,
        "meta_mean_motion_dot": 7.48e-06,
        "meta_mean_motion_ddot": 0,
        "tle_line1": "1 35834U 93036ATG 25351.11155296  .00000748  00000+0  39177-3 0  9998",
        "tle_line2": "2 35834  73.9324 296.7605 0109295  95.9530 281.2032 14.12986684663254"
      },
      "geometry": {
        "type": "Point",
        "coordinates": [
          -80.42469411335838,
          -41.81229151017173
        ]
      }
    },
    {
      "type": "Feature",
      "properties": {
        "norad_id": 35835,
        "name": "COSMOS 2251 DEB",
        "group": "cosmos-2251-debris",
        "lat": 0.7414035898341165,
        "lon": -100.82106796975157,
        "alt_km": 786.7346084994206,
        "timestamp": "2025-12-18T08:58:43.811516+00:00",
        "meta_object_name": "COSMOS 2251 DEB",
        "meta_object_id": "1993-036ATH",
        "meta_epoch": "2025-12-14T02:32:38.290272",
        "meta_mean_motion": 13.82885991,
        "meta_eccentricity": 0.02905018,
        "meta_inclination": 74.0643,
        "meta_ra_of_asc_node": 266.1402,
        "meta_arg_of_pericenter": 47.4139,
        "meta_mean_anomaly": 315.1102,
        "meta_ephemeris_type": 0,
        "meta_classification_type": "U",
        "meta_norad_cat_id": 35835,
        "meta_element_set_no": 999,
        "meta_rev_at_epoch": 61718,
        "meta_bstar": 0.0018908593,
        "meta_mean_motion_dot": 2.83e-05,
        "meta_mean_motion_ddot": 0,
        "tle_line1": "1 35835U 93036ATH 25348.10599873  .00002830  00000+0  18909-2 0  9990",
        "tle_line2": "2 35835  74.0643 266.1402 0290501  47.4139 315.1102 13.82885991617186"
      },
      "geometry": {
        "type": "Point",
        "coordinates": [
          -100.82106796975157,
          0.7414035898341165
        ]
      }
    },
    {
      "type": "Feature",
      "properties": {
        "norad_id": 35836,
        "name": "COSMOS 2251 DEB",
        "group": "cosmos-2251-debris",
        "lat": -25.966999495155637,
        "lon": -9.99083901736068,
        "alt_km": 646.4510721545803,
        "timestamp": "2025-12-18T08:58:43.811526+00:00",
        "meta_object_name": "COSMOS 2251 DEB",
        "meta_object_id": "1993-036ATJ",
        "meta_epoch": "2025-12-15T04:57:37.173600",
        "meta_mean_motion": 14.7102941,
        "meta_eccentricity": 0.00240331,
        "meta_inclination": 74.0312,
        "meta_ra_of_asc_node": 168.1432,
        "meta_arg_of_pericenter": 226.3716,
        "meta_mean_anomaly": 133.5463,
        "meta_ephemeris_type": 0,
        "meta_classification_type": "U",
        "meta_norad_cat_id": 35836,
        "meta_element_set_no": 999,
        "meta_rev_at_epoch": 63556,
        "meta_bstar": 0.0012109146,
        "meta_mean_motion_dot": 7.444e-05,
        "meta_mean_motion_ddot": 0,
        "tle_line1": "1 35836U 93036ATJ 25349.20668025  .00007444  00000+0  12109-2 0  9991",
        "tle_line2": "2 35836  74.0312 168.1432 0024033 226.3716 133.5463 14.71029410635567"
      },
      "geometry": {
        "type": "Point",
        "coordinates": [
          -9.99083901736068,
          -25.966999495155637
        ]
      }
    }
  ]
}